{"type": "Feature", "properties": {"nombre": "Raya de Colinas con Quiruelas de Vidriales", "nota": "Limite jurisdiccional hasta 1972; hoy linea interior del municipio", "longitud_m": 6050}, "geometry": {"type": "MultiLineString", "coordinates": [[[-5.8362687, 41.9961914], [-5.8360779, 41.9961214]], [[-5.8360779, 41.9961214], [-5.8360431, 41.9960841]], [[-5.8360431, 41.9960841], [-5.835706, 41.9960943]], [[-5.835706, 41.9960943], [-5.8357043, 41.9960946]], [[-5.8357043, 41.9960946], [-5.8356621, 41.9960956]], [[-5.8356621, 41.9960956], [-5.8350794, 41.9961104]], [[-5.8350794, 41.9961104], [-5.8347828, 41.9961192]], [[-5.8347828, 41.9961192], [-5.8346042, 41.9961292]], [[-5.8346042, 41.9961292], [-5.8343923, 41.9960901]], [[-5.8343923, 41.9960901], [-5.834174, 41.9960491]], [[-5.834174, 41.9960491], [-5.8340946, 41.9960334]], [[-5.8340946, 41.9960334], [-5.83383, 41.9959733]], [[-5.8337443, 41.9959236], [-5.8324842, 41.9968899]], [[-5.8324842, 41.9968899], [-5.8324757, 41.9968832]], [[-5.8324757, 41.9968832], [-5.8324748, 41.996884]], [[-5.8324748, 41.996884], [-5.832447, 41.9969073]], [[-5.832447, 41.9969073], [-5.8324051, 41.9969568]], [[-5.8324051, 41.9969568], [-5.8322707, 41.9968577]], [[-5.8322707, 41.9968577], [-5.8319538, 41.9972821]], [[-5.8319538, 41.9972821], [-5.8319445, 41.9972947]], [[-5.8319445, 41.9972947], [-5.8314127, 41.9979977]], [[-5.8314127, 41.9979977], [-5.8314089, 41.9979949]], [[-5.8314089, 41.9979949], [-5.8313965, 41.998011]], [[-5.8313965, 41.998011], [-5.831143, 41.9978241]], [[-5.831143, 41.9978241], [-5.83088, 41.997642]], [[-5.83088, 41.997642], [-5.8303898, 41.9982876]], [[-5.8303898, 41.9982876], [-5.8300424, 41.9987383]], [[-5.8300424, 41.9987383], [-5.8300339, 41.9987485]], [[-5.8300339, 41.9987485], [-5.8299821, 41.9988104]], [[-5.8299821, 41.9988104], [-5.8295033, 41.998461]], [[-5.8295033, 41.998461], [-5.8281749, 41.9995055]], [[-5.8281749, 41.9995055], [-5.8279891, 41.9993629]], [[-5.8279891, 41.9993629], [-5.8279875, 41.9993642]], [[-5.8279875, 41.9993642], [-5.8279534, 41.9993927]], [[-5.8279534, 41.9993927], [-5.8277957, 41.999278]], [[-5.8277957, 41.999278], [-5.8277945, 41.9992776]], [[-5.8277945, 41.9992776], [-5.8275989, 41.9991405]], [[-5.8275989, 41.9991405], [-5.8257936, 42.0005168]], [[-5.8262369, 42.0009009], [-5.8261824, 42.0009321]], [[-5.8262369, 42.0009009], [-5.8259395, 42.0007059]], [[-5.8261824, 42.0009321], [-5.8261782, 42.0009344]], [[-5.8261782, 42.0009344], [-5.8261437, 42.0009541]], [[-5.8261437, 42.0009541], [-5.8261116, 42.0009725]], [[-5.8261116, 42.0009725], [-5.8260872, 42.0009865]], [[-5.8260872, 42.0009865], [-5.8260738, 42.000994]], [[-5.8260738, 42.000994], [-5.8260248, 42.0010216]], [[-5.8260248, 42.0010216], [-5.8259506, 42.0010675]], [[-5.8259395, 42.0007059], [-5.8259368, 42.000704]], [[-5.8259368, 42.000704], [-5.8257385, 42.0005589]], [[-5.8259506, 42.0010675], [-5.8257138, 42.0009677]], [[-5.8257936, 42.0005168], [-5.8257385, 42.0005589]], [[-5.8257138, 42.0009677], [-5.825118, 42.0015721]], [[-5.825118, 42.0015721], [-5.8248759, 42.0018139]], [[-5.8248759, 42.0018139], [-5.8247927, 42.0017901]], [[-5.8247927, 42.0017901], [-5.8247892, 42.0017925]], [[-5.8247892, 42.0017925], [-5.824767, 42.0018097]], [[-5.824767, 42.0018097], [-5.8247369, 42.001833]], [[-5.8247369, 42.001833], [-5.8244321, 42.001769]], [[-5.8244321, 42.001769], [-5.8240239, 42.0016751]], [[-5.8240239, 42.0016751], [-5.8234563, 42.0022694]], [[-5.8234563, 42.0022694], [-5.8225587, 42.0020639]], [[-5.8232519, 42.0029073], [-5.8232412, 42.002905]], [[-5.8232519, 42.0029073], [-5.8223997, 42.0037614]], [[-5.8232435, 42.0028485], [-5.8232285, 42.0028834]], [[-5.8232435, 42.0028485], [-5.822902, 42.0027889]], [[-5.8232412, 42.002905], [-5.823221, 42.0029008]], [[-5.8232285, 42.0028834], [-5.823221, 42.0029008]], [[-5.822902, 42.0027889], [-5.8224084, 42.0027033]], [[-5.8225587, 42.0020639], [-5.8225213, 42.0020553]], [[-5.8225213, 42.0020553], [-5.8225103, 42.0020821]], [[-5.8225103, 42.0020821], [-5.8222437, 42.0026742]], [[-5.8224084, 42.0027033], [-5.8222437, 42.0026742]], [[-5.8223997, 42.0037614], [-5.8223825, 42.003782]], [[-5.8223825, 42.003782], [-5.8223815, 42.0037833]], [[-5.8223815, 42.0037833], [-5.8223575, 42.003813]], [[-5.8223575, 42.003813], [-5.8223231, 42.0038559]], [[-5.8223231, 42.0038559], [-5.8223167, 42.003864]], [[-5.8223167, 42.003864], [-5.8222786, 42.0039115]], [[-5.8222786, 42.0039115], [-5.8222678, 42.0039249]], [[-5.8222678, 42.0039249], [-5.8222526, 42.0039446]], [[-5.8222526, 42.0039446], [-5.8222346, 42.0039664]], [[-5.8222346, 42.0039664], [-5.8222322, 42.0039693]], [[-5.8222322, 42.0039693], [-5.8222276, 42.003975]], [[-5.8222276, 42.003975], [-5.8220531, 42.0041872]], [[-5.8220531, 42.0041872], [-5.8220186, 42.0042298]], [[-5.8220186, 42.0042298], [-5.8219762, 42.0042875]], [[-5.8219762, 42.0042875], [-5.8219136, 42.0043728]], [[-5.8219136, 42.0043728], [-5.8219123, 42.0043745]], [[-5.8219123, 42.0043745], [-5.8218898, 42.0044053]], [[-5.8218898, 42.0044053], [-5.8218883, 42.0044072]], [[-5.8218883, 42.0044072], [-5.8218744, 42.0044262]], [[-5.8218744, 42.0044262], [-5.8218736, 42.0044272]], [[-5.8218736, 42.0044272], [-5.8217581, 42.0045844]], [[-5.8217581, 42.0045844], [-5.8217356, 42.004611]], [[-5.8217356, 42.004611], [-5.8215662, 42.0048114]], [[-5.8215662, 42.0048114], [-5.8214905, 42.0049002]], [[-5.8214905, 42.0049002], [-5.8214892, 42.0049016]], [[-5.8214892, 42.0049016], [-5.8214841, 42.0049077]], [[-5.8214841, 42.0049077], [-5.8214629, 42.004933]], [[-5.8214629, 42.004933], [-5.8214084, 42.0049979]], [[-5.8214084, 42.0049979], [-5.8213207, 42.0051158]], [[-5.8213207, 42.0051158], [-5.821305, 42.0051394]], [[-5.821305, 42.0051394], [-5.8212688, 42.005194]], [[-5.8212688, 42.005194], [-5.8209592, 42.0056592]], [[-5.8209592, 42.0056592], [-5.8209086, 42.0057093]], [[-5.8209086, 42.0057093], [-5.8209058, 42.0057121]], [[-5.8209058, 42.0057121], [-5.8208669, 42.0057506]], [[-5.8208669, 42.0057506], [-5.8208315, 42.0057856]], [[-5.8208315, 42.0057856], [-5.8208006, 42.0058161]], [[-5.8208006, 42.0058161], [-5.8207546, 42.0058617]], [[-5.8207546, 42.0058617], [-5.82073, 42.0058856]], [[-5.82073, 42.0058856], [-5.8206669, 42.0059478]], [[-5.8206669, 42.0059478], [-5.8199491, 42.006654]], [[-5.8199491, 42.006654], [-5.819948, 42.0066546]], [[-5.819948, 42.0066546], [-5.8194736, 42.0072003]], [[-5.8194736, 42.0072003], [-5.81947, 42.0072039]], [[-5.81947, 42.0072039], [-5.819404, 42.0072648]], [[-5.819404, 42.0072648], [-5.8191505, 42.0074989]], [[-5.8191505, 42.0074989], [-5.8189763, 42.0076442]], [[-5.8189763, 42.0076442], [-5.8186131, 42.0079474]], [[-5.8186131, 42.0079474], [-5.8186113, 42.0079488]], [[-5.8186113, 42.0079488], [-5.8185475, 42.0079977]], [[-5.8185475, 42.0079977], [-5.8185461, 42.0079988]], [[-5.8185461, 42.0079988], [-5.818525, 42.008015]], [[-5.818525, 42.008015], [-5.8183877, 42.0079224]], [[-5.8183877, 42.0079224], [-5.818378, 42.0079163]], [[-5.818378, 42.0079163], [-5.8182213, 42.0078079]], [[-5.8182213, 42.0078079], [-5.8182179, 42.0078058]], [[-5.8182179, 42.0078058], [-5.8181003, 42.0077327]], [[-5.8181003, 42.0077327], [-5.8180885, 42.0077306]], [[-5.8180885, 42.0077306], [-5.8180755, 42.0077283]], [[-5.8180755, 42.0077283], [-5.8180474, 42.0077235]], [[-5.8180474, 42.0077235], [-5.8179877, 42.0077132]], [[-5.8179877, 42.0077132], [-5.8177799, 42.0076772]], [[-5.8177799, 42.0076772], [-5.8175886, 42.0076432]], [[-5.8175886, 42.0076432], [-5.8175136, 42.0076299]], [[-5.8175136, 42.0076299], [-5.8175064, 42.0076288]], [[-5.8175064, 42.0076288], [-5.8173737, 42.0076071]], [[-5.8173737, 42.0076071], [-5.8170375, 42.0075694]], [[-5.8170375, 42.0075694], [-5.8168367, 42.007547]], [[-5.8168367, 42.007547], [-5.8165202, 42.0075116]], [[-5.8165202, 42.0075116], [-5.8163335, 42.0074878]], [[-5.8163335, 42.0074878], [-5.8163283, 42.0074874]], [[-5.8163283, 42.0074874], [-5.8161075, 42.007467]], [[-5.8161709, 42.0078419], [-5.8161723, 42.0080064]], [[-5.8161709, 42.0078419], [-5.8161075, 42.007467]], [[-5.8161723, 42.0080064], [-5.8161733, 42.0080649]], [[-5.8161733, 42.0080649], [-5.8161734, 42.0080703]], [[-5.8161734, 42.0080703], [-5.8161639, 42.0081711]], [[-5.8161639, 42.0081711], [-5.8161623, 42.0081875]], [[-5.8161623, 42.0081875], [-5.8161614, 42.0081882]], [[-5.8161614, 42.0081882], [-5.8160555, 42.0082626]], [[-5.8161804, 42.0096188], [-5.8161092, 42.0097721]], [[-5.8161804, 42.0096188], [-5.815498, 42.0092637]], [[-5.8160555, 42.0082626], [-5.8160535, 42.0082642]], [[-5.8160535, 42.0082642], [-5.815826, 42.008401]], [[-5.8161092, 42.0097721], [-5.8160659, 42.0098321]], [[-5.8160659, 42.0098321], [-5.8160433, 42.0098551]], [[-5.8160433, 42.0098551], [-5.8160198, 42.0098791]], [[-5.8160198, 42.0098791], [-5.8159814, 42.0099045]], [[-5.8159814, 42.0099045], [-5.8159589, 42.0099239]], [[-5.8159589, 42.0099239], [-5.8159265, 42.0099413]], [[-5.8159265, 42.0099413], [-5.8159013, 42.0099548]], [[-5.8159013, 42.0099548], [-5.8157857, 42.0100159]], [[-5.815826, 42.008401], [-5.8158057, 42.0084132]], [[-5.8158057, 42.0084132], [-5.8156792, 42.0084801]], [[-5.8157857, 42.0100159], [-5.8156782, 42.0100727]], [[-5.8156792, 42.0084801], [-5.8154741, 42.0085473]], [[-5.8156782, 42.0100727], [-5.8156281, 42.0100945]], [[-5.8156281, 42.0100945], [-5.8155273, 42.0101262]], [[-5.8154741, 42.0085473], [-5.8153893, 42.008582]], [[-5.815498, 42.0092637], [-5.8153821, 42.0092039]], [[-5.8155273, 42.0101262], [-5.8154322, 42.0101442]], [[-5.8154567, 42.0091733], [-5.8154497, 42.0091679]], [[-5.8154567, 42.0091733], [-5.8153545, 42.0091549]], [[-5.8154497, 42.0091679], [-5.8153547, 42.0090973]], [[-5.8153893, 42.008582], [-5.8153406, 42.0086426]], [[-5.8154322, 42.0101442], [-5.8154165, 42.0101471]], [[-5.8153821, 42.0092039], [-5.8153545, 42.0091549]], [[-5.8154165, 42.0101471], [-5.815389, 42.010158]], [[-5.8153406, 42.0086426], [-5.8153027, 42.0087628]], [[-5.8153547, 42.0090973], [-5.8153076, 42.0090191]], [[-5.815389, 42.010158], [-5.8152738, 42.0101907]], [[-5.8153027, 42.0087628], [-5.8152968, 42.0087876]], [[-5.8153076, 42.0090191], [-5.8152878, 42.0089063]], [[-5.8152968, 42.0087876], [-5.8152878, 42.0089063]], [[-5.8152738, 42.0101907], [-5.8151948, 42.0102098]], [[-5.8152708, 42.0108295], [-5.8152578, 42.0108442]], [[-5.8152708, 42.0108295], [-5.8151732, 42.0107524]], [[-5.8152578, 42.0108442], [-5.8152441, 42.0108595]], [[-5.8152441, 42.0108595], [-5.8150997, 42.0110182]], [[-5.8151948, 42.0102098], [-5.8150858, 42.0102592]], [[-5.8151732, 42.0107524], [-5.8151719, 42.0107518]], [[-5.8151719, 42.0107518], [-5.8150718, 42.0106999]], [[-5.8150858, 42.0102592], [-5.8150306, 42.010294]], [[-5.8150997, 42.0110182], [-5.8150917, 42.0110269]], [[-5.8150917, 42.0110269], [-5.8150563, 42.0110646]], [[-5.8150718, 42.0106999], [-5.8150682, 42.0106975]], [[-5.8150682, 42.0106975], [-5.8149715, 42.0106403]], [[-5.8150306, 42.010294], [-5.8150147, 42.0103038]], [[-5.8150563, 42.0110646], [-5.8150302, 42.0110924]], [[-5.8150147, 42.0103038], [-5.8150007, 42.010319]], [[-5.8150007, 42.010319], [-5.8149486, 42.0104001]], [[-5.8150302, 42.0110924], [-5.8150278, 42.0110947]], [[-5.8150278, 42.0110947], [-5.8148776, 42.011237]], [[-5.8149715, 42.0106403], [-5.8149441, 42.0106126]], [[-5.8149486, 42.0104001], [-5.8149431, 42.010415]], [[-5.8149431, 42.010415], [-5.8149313, 42.0105072]], [[-5.8149441, 42.0106126], [-5.8149437, 42.0106117]], [[-5.8149437, 42.0106117], [-5.8149325, 42.0105864]], [[-5.8149316, 42.0105095], [-5.8149313, 42.0105072]], [[-5.8149316, 42.0105095], [-5.8149325, 42.0105864]], [[-5.8148776, 42.011237], [-5.8148691, 42.0112451]], [[-5.8148691, 42.0112451], [-5.8148175, 42.0112939]], [[-5.8148175, 42.0112939], [-5.8147651, 42.0113437]], [[-5.8147651, 42.0113437], [-5.8147588, 42.0113489]], [[-5.8147588, 42.0113489], [-5.8145843, 42.0114966]], [[-5.8145843, 42.0114966], [-5.8141606, 42.0118549]], [[-5.8141606, 42.0118549], [-5.8141596, 42.0118558]], [[-5.8141596, 42.0118558], [-5.8141494, 42.0118649]], [[-5.8141494, 42.0118649], [-5.8141294, 42.011883]], [[-5.8141294, 42.011883], [-5.8141059, 42.011904]], [[-5.8141059, 42.011904], [-5.8135143, 42.0124654]], [[-5.8135143, 42.0124654], [-5.8134808, 42.0125356]], [[-5.8134808, 42.0125356], [-5.8133371, 42.0127591]], [[-5.8133371, 42.0127591], [-5.813337, 42.0127601]], [[-5.813337, 42.0127601], [-5.8133228, 42.0127724]], [[-5.8133228, 42.0127724], [-5.8133076, 42.0127855]], [[-5.8133076, 42.0127855], [-5.813251, 42.0128295]], [[-5.813251, 42.0128295], [-5.8131525, 42.0128994]], [[-5.8131525, 42.0128994], [-5.8130859, 42.012918]], [[-5.8130859, 42.012918], [-5.8130341, 42.0129626]], [[-5.8130341, 42.0129626], [-5.8130332, 42.0129636]], [[-5.8130332, 42.0129636], [-5.8129228, 42.013069]], [[-5.8129228, 42.013069], [-5.812889, 42.0131013]], [[-5.812889, 42.0131013], [-5.8128883, 42.0131024]], [[-5.8128883, 42.0131024], [-5.8127488, 42.0132513]], [[-5.8127488, 42.0132513], [-5.812736, 42.0132652]], [[-5.812736, 42.0132652], [-5.8127338, 42.0132672]], [[-5.8127338, 42.0132672], [-5.8127219, 42.0132792]], [[-5.8127219, 42.0132792], [-5.8126941, 42.0133077]], [[-5.8126941, 42.0133077], [-5.8126586, 42.0133478]], [[-5.8126586, 42.0133478], [-5.8126188, 42.0133807]], [[-5.8126188, 42.0133807], [-5.8125845, 42.0134091]], [[-5.8125845, 42.0134091], [-5.812415, 42.0135497]], [[-5.812415, 42.0135497], [-5.8124132, 42.0135513]], [[-5.8124132, 42.0135513], [-5.812355, 42.0135906]], [[-5.812355, 42.0135906], [-5.8122595, 42.0136593]], [[-5.8122595, 42.0136593], [-5.8122129, 42.0136963]], [[-5.8122129, 42.0136963], [-5.8120715, 42.0138085]], [[-5.8120715, 42.0138085], [-5.8119942, 42.0138714]], [[-5.8119942, 42.0138714], [-5.8119921, 42.013873]], [[-5.8119921, 42.013873], [-5.8118715, 42.0139406]], [[-5.8118715, 42.0139406], [-5.8118056, 42.0139775]], [[-5.8118056, 42.0139775], [-5.811548, 42.0141151]], [[-5.811548, 42.0141151], [-5.811271, 42.0142896]], [[-5.811271, 42.0142896], [-5.8112272, 42.0143164]], [[-5.8112272, 42.0143164], [-5.8111432, 42.0143691]], [[-5.8111432, 42.0143691], [-5.8109373, 42.014534]], [[-5.8109373, 42.014534], [-5.8109363, 42.0145348]], [[-5.8109363, 42.0145348], [-5.8107495, 42.0145882]], [[-5.8107495, 42.0145882], [-5.8104752, 42.0147154]], [[-5.8104752, 42.0147154], [-5.8104455, 42.0147292]], [[-5.8104455, 42.0147292], [-5.8104432, 42.0147303]], [[-5.8104432, 42.0147303], [-5.8104415, 42.0147312]], [[-5.8104415, 42.0147312], [-5.810081, 42.0149542]], [[-5.810081, 42.0149542], [-5.8099675, 42.015024]], [[-5.8099675, 42.015024], [-5.8099187, 42.0150604]], [[-5.8099187, 42.0150604], [-5.8097016, 42.0152219]], [[-5.8097016, 42.0152219], [-5.8095593, 42.0153396]], [[-5.8095593, 42.0153396], [-5.8095539, 42.015344]], [[-5.8095539, 42.015344], [-5.8092577, 42.0155857]], [[-5.8092577, 42.0155857], [-5.8090785, 42.0157318]], [[-5.8090785, 42.0157318], [-5.8090761, 42.0157339]], [[-5.8090761, 42.0157339], [-5.8089313, 42.0158577]], [[-5.8089313, 42.0158577], [-5.8088535, 42.0159068]], [[-5.8088535, 42.0159068], [-5.8087067, 42.0159988]], [[-5.8087067, 42.0159988], [-5.8087025, 42.0160014]], [[-5.8087025, 42.0160014], [-5.8086839, 42.0160119]], [[-5.8086839, 42.0160119], [-5.8085101, 42.0161098]], [[-5.8085101, 42.0161098], [-5.8085009, 42.0161151]], [[-5.8085009, 42.0161151], [-5.8084874, 42.0161221]], [[-5.8084874, 42.0161221], [-5.8084035, 42.0161658]], [[-5.8084035, 42.0161658], [-5.8083087, 42.0162156]], [[-5.8083087, 42.0162156], [-5.8082857, 42.0162276]], [[-5.8082857, 42.0162276], [-5.8074817, 42.0166545]], [[-5.8074817, 42.0166545], [-5.8073644, 42.016717]], [[-5.8073644, 42.016717], [-5.8070931, 42.0168664]], [[-5.8070931, 42.0168664], [-5.8067806, 42.0170383]], [[-5.8067806, 42.0170383], [-5.8065981, 42.0171391]], [[-5.8065981, 42.0171391], [-5.8065853, 42.0171466]], [[-5.8065853, 42.0171466], [-5.8065711, 42.017155]], [[-5.8065711, 42.017155], [-5.8063156, 42.0173035]], [[-5.8063156, 42.0173035], [-5.8061115, 42.0174225]], [[-5.8061115, 42.0174225], [-5.8059252, 42.017531]], [[-5.8059252, 42.017531], [-5.8059244, 42.0175313]], [[-5.8059244, 42.0175313], [-5.8055951, 42.0176924]], [[-5.8055951, 42.0176924], [-5.8055936, 42.0176932]], [[-5.8055936, 42.0176932], [-5.8055103, 42.0177321]], [[-5.8055103, 42.0177321], [-5.8050885, 42.0179346]], [[-5.8050885, 42.0179346], [-5.8050764, 42.0179438]], [[-5.8050764, 42.0179438], [-5.8049378, 42.0180496]], [[-5.8049378, 42.0180496], [-5.8048344, 42.0181284]], [[-5.8048344, 42.0181284], [-5.8047789, 42.01817]], [[-5.8047789, 42.01817], [-5.804668, 42.0182542]], [[-5.804668, 42.0182542], [-5.8046655, 42.0182561]], [[-5.8046655, 42.0182561], [-5.8041552, 42.0185957]], [[-5.8041552, 42.0185957], [-5.8041536, 42.0185966]], [[-5.8041536, 42.0185966], [-5.8041039, 42.0186347]], [[-5.8041039, 42.0186347], [-5.8039011, 42.0187908]], [[-5.8039011, 42.0187908], [-5.8036153, 42.0190888]], [[-5.8036153, 42.0190888], [-5.8036094, 42.0190949]], [[-5.8036094, 42.0190949], [-5.8036086, 42.0190959]], [[-5.8036086, 42.0190959], [-5.8035921, 42.0191108]], [[-5.8035921, 42.0191108], [-5.8033308, 42.0193465]], [[-5.8033308, 42.0193465], [-5.8033236, 42.0193531]], [[-5.8033236, 42.0193531], [-5.8032322, 42.019432]], [[-5.8032322, 42.019432], [-5.8031689, 42.0194866]], [[-5.8031689, 42.0194866], [-5.8031098, 42.0195374]], [[-5.8031098, 42.0195374], [-5.8031039, 42.0195468]], [[-5.8031039, 42.0195468], [-5.8030812, 42.0195755]], [[-5.8030812, 42.0195755], [-5.8030298, 42.019642]], [[-5.8030298, 42.019642], [-5.8030282, 42.0196432]], [[-5.8030282, 42.0196432], [-5.8030115, 42.0196564]], [[-5.8030115, 42.0196564], [-5.8029595, 42.0196967]], [[-5.8029595, 42.0196967], [-5.802932, 42.0197181]], [[-5.802932, 42.0197181], [-5.8028863, 42.0197599]], [[-5.8028863, 42.0197599], [-5.8027932, 42.0198454]], [[-5.8027932, 42.0198454], [-5.8027904, 42.0198479]], [[-5.8027904, 42.0198479], [-5.8027471, 42.0198875]], [[-5.8027471, 42.0198875], [-5.80274, 42.0198939]], [[-5.80274, 42.0198939], [-5.8027395, 42.0198944]], [[-5.8027395, 42.0198944], [-5.8026849, 42.0199477]], [[-5.8026849, 42.0199477], [-5.8026438, 42.0199872]], [[-5.8026438, 42.0199872], [-5.8025529, 42.0200744]], [[-5.8025529, 42.0200744], [-5.802552, 42.0200753]], [[-5.802552, 42.0200753], [-5.8024649, 42.020151]], [[-5.8024649, 42.020151], [-5.8024636, 42.0201524]], [[-5.8024636, 42.0201524], [-5.8023107, 42.0203255]], [[-5.8023107, 42.0203255], [-5.8022682, 42.0203782]], [[-5.8022682, 42.0203782], [-5.8022199, 42.0204383]], [[-5.8022199, 42.0204383], [-5.8021523, 42.0204988]], [[-5.8021523, 42.0204988], [-5.8021402, 42.0205097]], [[-5.8021402, 42.0205097], [-5.8020548, 42.0206044]], [[-5.8020548, 42.0206044], [-5.8020503, 42.020609]], [[-5.8020503, 42.020609], [-5.8019336, 42.0207275]], [[-5.8019336, 42.0207275], [-5.8019326, 42.0207282]], [[-5.8019326, 42.0207282], [-5.8018431, 42.0208288]], [[-5.8018431, 42.0208288], [-5.8018422, 42.0208299]], [[-5.8018422, 42.0208299], [-5.8017526, 42.0209155]], [[-5.8017526, 42.0209155], [-5.8017454, 42.0209224]], [[-5.8017454, 42.0209224], [-5.801744, 42.0209236]], [[-5.801744, 42.0209236], [-5.8016872, 42.0209778]], [[-5.8016872, 42.0209778], [-5.8016721, 42.0209904]], [[-5.8016721, 42.0209904], [-5.8016468, 42.0210116]], [[-5.8016468, 42.0210116], [-5.8016266, 42.0210285]], [[-5.8016266, 42.0210285], [-5.8016201, 42.0210339]], [[-5.8016201, 42.0210339], [-5.8016029, 42.0210465]], [[-5.8016029, 42.0210465], [-5.8015579, 42.0210792]], [[-5.8015579, 42.0210792], [-5.801497, 42.0211346]], [[-5.801497, 42.0211346], [-5.8014539, 42.0211659]], [[-5.8014539, 42.0211659], [-5.8013754, 42.0212228]], [[-5.8013754, 42.0212228], [-5.8013707, 42.0212263]], [[-5.8013707, 42.0212263], [-5.8012415, 42.0213089]], [[-5.8012415, 42.0213089], [-5.8012255, 42.0213191]], [[-5.8012255, 42.0213191], [-5.8012171, 42.0213246]], [[-5.8012171, 42.0213246], [-5.8011682, 42.0213569]], [[-5.8011682, 42.0213569], [-5.8008734, 42.0215607]], [[-5.8008734, 42.0215607], [-5.8008708, 42.0215628]], [[-5.8008708, 42.0215628], [-5.8006221, 42.0217392]], [[-5.8006221, 42.0217392], [-5.8006214, 42.0217396]], [[-5.8006214, 42.0217396], [-5.8005, 42.0218245]], [[-5.8005, 42.0218245], [-5.8004689, 42.0218465]], [[-5.8004689, 42.0218465], [-5.800454, 42.0218571]], [[-5.800454, 42.0218571], [-5.8004492, 42.0218606]], [[-5.8004492, 42.0218606], [-5.8003562, 42.0219308]], [[-5.8003562, 42.0219308], [-5.8003428, 42.0219402]], [[-5.8003428, 42.0219402], [-5.8003241, 42.0219533]], [[-5.8003241, 42.0219533], [-5.8001217, 42.0221034]], [[-5.8001217, 42.0221034], [-5.7999763, 42.022211]], [[-5.7999763, 42.022211], [-5.7998949, 42.0222634]], [[-5.7998949, 42.0222634], [-5.7996672, 42.0224383]], [[-5.7996672, 42.0224383], [-5.7995437, 42.0225328]], [[-5.7995437, 42.0225328], [-5.7994351, 42.0226127]], [[-5.7994351, 42.0226127], [-5.799382, 42.0226518]], [[-5.799382, 42.0226518], [-5.7992396, 42.0227577]], [[-5.7992396, 42.0227577], [-5.7991994, 42.0227871]], [[-5.7991994, 42.0227871], [-5.7991979, 42.0227883]], [[-5.7991979, 42.0227883], [-5.7990933, 42.0228589]], [[-5.7990933, 42.0228589], [-5.7990204, 42.0229082]], [[-5.7990204, 42.0229082], [-5.7989892, 42.0229293]], [[-5.7989892, 42.0229293], [-5.7987563, 42.0230985]], [[-5.7984364, 42.0233226], [-5.7984302, 42.0233264]], [[-5.7984302, 42.0233264], [-5.798374, 42.0233607]], [[-5.798374, 42.0233607], [-5.7983416, 42.0233805]], [[-5.7983416, 42.0233805], [-5.7981872, 42.0234835]], [[-5.7981872, 42.0234835], [-5.7980831, 42.0235583]], [[-5.7980831, 42.0235583], [-5.798079, 42.0235613]], [[-5.798079, 42.0235613], [-5.7979362, 42.0236697]], [[-5.7979362, 42.0236697], [-5.7978423, 42.0237535]], [[-5.7978423, 42.0237535], [-5.7978393, 42.0237559]], [[-5.7978393, 42.0237559], [-5.7977878, 42.0237949]], [[-5.7977878, 42.0237949], [-5.7976632, 42.0238889]], [[-5.7976632, 42.0238889], [-5.7976546, 42.0238951]], [[-5.7976546, 42.0238951], [-5.7975406, 42.0239754]], [[-5.7975406, 42.0239754], [-5.7975374, 42.023977]], [[-5.7975374, 42.023977], [-5.7974985, 42.0240046]], [[-5.7974985, 42.0240046], [-5.7974498, 42.0240274]], [[-5.7974498, 42.0240274], [-5.7973091, 42.02411]], [[-5.7973091, 42.02411], [-5.7971581, 42.0242086]], [[-5.7971581, 42.0242086], [-5.7971073, 42.0242368]], [[-5.7971073, 42.0242368], [-5.7967036, 42.0245171]], [[-5.7967036, 42.0245171], [-5.7966354, 42.0245628]], [[-5.7966354, 42.0245628], [-5.7966266, 42.0245688]], [[-5.7966266, 42.0245688], [-5.7966219, 42.024572]], [[-5.7966219, 42.024572], [-5.7962052, 42.0248551]], [[-5.7962052, 42.0248551], [-5.7962018, 42.0248605]], [[-5.7962018, 42.0248605], [-5.7961771, 42.0249006]], [[-5.7961771, 42.0249006], [-5.7961211, 42.0249924]], [[-5.7961211, 42.0249924], [-5.7960904, 42.0250625]], [[-5.7960904, 42.0250625], [-5.7959734, 42.0253293]], [[-5.7959734, 42.0253293], [-5.7959655, 42.0253295]], [[-5.7959655, 42.0253295], [-5.7959254, 42.0254053]], [[-5.7959254, 42.0254053], [-5.7958878, 42.0254768]], [[-5.7958878, 42.0254768], [-5.7958776, 42.025496]], [[-5.7958776, 42.025496], [-5.7958558, 42.0255473]], [[-5.7958558, 42.0255473], [-5.7957963, 42.0256878]], [[-5.7957963, 42.0256878], [-5.795762, 42.0257684]], [[-5.795762, 42.0257684], [-5.795701, 42.0258775]], [[-5.795701, 42.0258775], [-5.7955449, 42.0261637]], [[-5.7955449, 42.0261637], [-5.7955019, 42.0262426]], [[-5.7955019, 42.0262426], [-5.7954698, 42.0263014]], [[-5.7954698, 42.0263014], [-5.7954401, 42.0263567]], [[-5.7954401, 42.0263567], [-5.7954069, 42.0264331]], [[-5.7954069, 42.0264331], [-5.7953853, 42.026483]], [[-5.7953853, 42.026483], [-5.7953385, 42.0265772]], [[-5.7953385, 42.0265772], [-5.7953175, 42.0266207]], [[-5.7953175, 42.0266207], [-5.7953152, 42.0266252]], [[-5.7953152, 42.0266252], [-5.7953089, 42.0266414]], [[-5.7953089, 42.0266414], [-5.7952866, 42.0266992]], [[-5.7952866, 42.0266992], [-5.7952647, 42.0267563]], [[-5.7952647, 42.0267563], [-5.7952625, 42.0267609]], [[-5.7952625, 42.0267609], [-5.7951987, 42.0268913]], [[-5.7951987, 42.0268913], [-5.795136, 42.0270166]], [[-5.795136, 42.0270166], [-5.7950804, 42.0271133]], [[-5.7950804, 42.0271133], [-5.7950781, 42.0271171]], [[-5.7950781, 42.0271171], [-5.7950147, 42.027247]], [[-5.7950152, 42.0272479], [-5.7950147, 42.027247]], [[-5.7950152, 42.0272479], [-5.7949892, 42.0273019]], [[-5.7949892, 42.0273019], [-5.7949754, 42.0273308]], [[-5.7949754, 42.0273308], [-5.7949737, 42.0273319]], [[-5.7949737, 42.0273319], [-5.7949615, 42.0273571]], [[-5.7949622, 42.027358], [-5.7949615, 42.0273571]], [[-5.7949622, 42.027358], [-5.794892, 42.027503]], [[-5.794892, 42.027503], [-5.7948693, 42.0275411]], [[-5.7948693, 42.0275411], [-5.7946513, 42.0279074]], [[-5.7946513, 42.0279074], [-5.7945179, 42.0281297]], [[-5.7945179, 42.0281297], [-5.7945167, 42.0281324]], [[-5.7945167, 42.0281324], [-5.7944711, 42.0282138]], [[-5.7944711, 42.0282138], [-5.794457, 42.0282406]], [[-5.794457, 42.0282406], [-5.7943325, 42.0284754]], [[-5.7943325, 42.0284754], [-5.7942683, 42.0286504]], [[-5.7942683, 42.0286504], [-5.794262, 42.0286672]], [[-5.794262, 42.0286672], [-5.7942213, 42.0288114]], [[-5.7942213, 42.0288114], [-5.7942023, 42.0288765]], [[-5.7942023, 42.0288765], [-5.7941973, 42.0288937]], [[-5.7941973, 42.0288937], [-5.794168, 42.0289489]], [[-5.794168, 42.0289489], [-5.7941672, 42.0289504]], [[-5.7941672, 42.0289504], [-5.7941338, 42.0290197]], [[-5.7941338, 42.0290197], [-5.7940912, 42.0291075]], [[-5.7940912, 42.0291075], [-5.7940867, 42.0291166]], [[-5.7940867, 42.0291166], [-5.794086, 42.0291187]], [[-5.794086, 42.0291187], [-5.7940807, 42.0290698]], [[-5.7940807, 42.0290698], [-5.7940586, 42.0288677]], [[-5.7940586, 42.0288677], [-5.7940426, 42.0288038]]]}}