{"type": "FeatureCollection", "features": [{"type": "Feature", "properties": {"nombre": "Colinas de Trasmonte", "fuente": "Catastro, poligonos rusticos 49189A004 y 49189A005 (INSPIRE CP, 2026-08-21)", "superficie_ha": 1026.6, "perimetro_m": 16345}, "geometry": {"type": "Polygon", "coordinates": [[[-5.8105918, 41.9867764], [-5.810578, 41.9867942], [-5.8105743, 41.9867979], [-5.8105656, 41.9868064], [-5.8105556, 41.9868163], [-5.8105433, 41.986814], [-5.8104244, 41.986792], [-5.8103828, 41.9868306], [-5.8103205, 41.9868455], [-5.810111, 41.987041], [-5.8102133, 41.9871325], [-5.8102235, 41.9871416], [-5.8102242, 41.9871423], [-5.8102051, 41.987161], [-5.8101643, 41.9872012], [-5.8101682, 41.9872047], [-5.8101624, 41.9872105], [-5.810156, 41.9872167], [-5.8096695, 41.987677], [-5.8089701, 41.9883289], [-5.8088335, 41.9884561], [-5.8088307, 41.9884587], [-5.8087313, 41.9885509], [-5.8086453, 41.9886424], [-5.8086154, 41.9886993], [-5.8085901, 41.988765], [-5.8085146, 41.9889201], [-5.8084475, 41.9890581], [-5.8084052, 41.9891196], [-5.808353, 41.9892379], [-5.8082218, 41.989479], [-5.8081878, 41.9895416], [-5.8081755, 41.9895642], [-5.8081726, 41.9895695], [-5.8081565, 41.9895954], [-5.8081394, 41.989623], [-5.8079166, 41.989983], [-5.8078687, 41.9900604], [-5.8077154, 41.9903891], [-5.8077012, 41.9904194], [-5.807627, 41.9905785], [-5.8076198, 41.9905938], [-5.8075284, 41.9907854], [-5.8074478, 41.9909542], [-5.8074136, 41.9909954], [-5.8073223, 41.9911051], [-5.8073167, 41.9911119], [-5.8073073, 41.9911205], [-5.8071035, 41.9913076], [-5.8068658, 41.9915058], [-5.806861, 41.9915099], [-5.8067742, 41.9915823], [-5.8066066, 41.9917374], [-5.8065872, 41.9917655], [-5.8065744, 41.9917773], [-5.806533, 41.9918155], [-5.8061821, 41.9921393], [-5.8061723, 41.9921482], [-5.8061307, 41.9921867], [-5.8060926, 41.9922219], [-5.8058093, 41.9924705], [-5.8057594, 41.9925145], [-5.8057472, 41.9925252], [-5.8057042, 41.9925629], [-5.8056364, 41.9926223], [-5.8056281, 41.9926296], [-5.8056179, 41.9926385], [-5.8055857, 41.9926714], [-5.8055799, 41.9926772], [-5.8055214, 41.9927367], [-5.8052287, 41.9930345], [-5.805214, 41.9930494], [-5.8051645, 41.9930998], [-5.8051431, 41.9931216], [-5.804692, 41.9936948], [-5.8046695, 41.9937235], [-5.8046529, 41.9937446], [-5.8046356, 41.9937666], [-5.8046272, 41.9937768], [-5.8041577, 41.9943494], [-5.8041261, 41.9943895], [-5.8041202, 41.9943969], [-5.8040489, 41.9944875], [-5.8039776, 41.9945778], [-5.803956, 41.9946051], [-5.8039472, 41.9946137], [-5.8039252, 41.9946349], [-5.8038526, 41.994705], [-5.8037954, 41.9947662], [-5.8036624, 41.9949083], [-5.8035923, 41.9949789], [-5.8035397, 41.9950319], [-5.8035085, 41.9950666], [-5.8031157, 41.9954608], [-5.8030646, 41.9955014], [-5.8028013, 41.9957111], [-5.8026669, 41.995818], [-5.8026126, 41.9958612], [-5.8025976, 41.995891], [-5.8025565, 41.9959237], [-5.8024385, 41.9960298], [-5.8019813, 41.9963349], [-5.8014938, 41.9966351], [-5.8013924, 41.9966943], [-5.8013141, 41.9967401], [-5.8012794, 41.9967603], [-5.801039, 41.9969007], [-5.8008272, 41.9970368], [-5.8006959, 41.9971212], [-5.8003324, 41.9973929], [-5.7997881, 41.9978044], [-5.7997806, 41.99781], [-5.7997768, 41.9978129], [-5.7997488, 41.9978341], [-5.7997246, 41.9978524], [-5.7997209, 41.9978552], [-5.7997128, 41.9978614], [-5.7996714, 41.9978926], [-5.7989332, 41.9983637], [-5.7986271, 41.9985591], [-5.7984667, 41.9986616], [-5.7984578, 41.9986671], [-5.7982351, 41.9988046], [-5.7981927, 41.9988307], [-5.7978113, 41.9990493], [-5.7977022, 41.9991128], [-5.7976238, 41.9991583], [-5.7975378, 41.9992083], [-5.7973037, 41.9993615], [-5.7966243, 41.9998089], [-5.7962006, 42.0001058], [-5.7961916, 42.0001121], [-5.7961466, 42.0001436], [-5.7961258, 42.0001573], [-5.7960663, 42.0001964], [-5.7960657, 42.0001973], [-5.7960647, 42.0001971], [-5.7959441, 42.0002792], [-5.7959092, 42.0003192], [-5.7954581, 42.0008197], [-5.7953617, 42.0009266], [-5.7952477, 42.0010531], [-5.7951768, 42.0011317], [-5.7950574, 42.0012642], [-5.7941933, 42.001685], [-5.7941651, 42.0017263], [-5.7941649, 42.0017285], [-5.7941221, 42.0017961], [-5.7941033, 42.001826], [-5.7941013, 42.0018291], [-5.7938822, 42.0022516], [-5.7938458, 42.0022666], [-5.7938306, 42.0022708], [-5.7938075, 42.0022771], [-5.7937894, 42.0022821], [-5.7937864, 42.002283], [-5.7933462, 42.002404], [-5.7933319, 42.0024079], [-5.7932072, 42.0024422], [-5.7928409, 42.0025442], [-5.7925533, 42.0026244], [-5.7917281, 42.0028729], [-5.7914081, 42.0030117], [-5.7913835, 42.0030224], [-5.7908225, 42.0032654], [-5.7896252, 42.0037264], [-5.7893974, 42.0038142], [-5.789109, 42.0039094], [-5.7876545, 42.0040079], [-5.7872034, 42.0040226], [-5.7870094, 42.0040754], [-5.7870079, 42.0040895], [-5.786981, 42.0043074], [-5.7869185, 42.0048282], [-5.7868099, 42.0054231], [-5.7862834, 42.0056825], [-5.7862732, 42.0056875], [-5.7861033, 42.005775], [-5.7856294, 42.0060191], [-5.7855882, 42.0060409], [-5.7851017, 42.0062991], [-5.7846649, 42.006738], [-5.7845726, 42.0068045], [-5.7845716, 42.006809], [-5.7845655, 42.0068378], [-5.7845538, 42.0068486], [-5.7845454, 42.0068564], [-5.7845158, 42.0068839], [-5.7843158, 42.0070698], [-5.7841529, 42.0073603], [-5.7841582, 42.0074223], [-5.7842131, 42.0080486], [-5.7842158, 42.0081], [-5.7842259, 42.0082951], [-5.7842046, 42.008444], [-5.783945, 42.0093932], [-5.7839063, 42.009503], [-5.7838861, 42.0095489], [-5.7837576, 42.0098393], [-5.7836906, 42.0100494], [-5.7836796, 42.0100931], [-5.7835867, 42.0104612], [-5.7835732, 42.0105145], [-5.7835415, 42.01064], [-5.7835625, 42.0110644], [-5.7835119, 42.0112913], [-5.7834933, 42.0113745], [-5.7834729, 42.0114081], [-5.7834546, 42.0114382], [-5.7831719, 42.0116013], [-5.783055, 42.011676], [-5.782997, 42.0117055], [-5.7829114, 42.0117491], [-5.782756, 42.0117851], [-5.7827107, 42.0117955], [-5.782618, 42.0118064], [-5.7824557, 42.0118256], [-5.7822871, 42.0118484], [-5.7820015, 42.011887], [-5.7818473, 42.0119127], [-5.7817516, 42.0119287], [-5.7817382, 42.0119298], [-5.7816586, 42.0119362], [-5.7811466, 42.0119223], [-5.7808895, 42.0119161], [-5.7806957, 42.0119114], [-5.7801849, 42.0118817], [-5.7800809, 42.0118698], [-5.7800439, 42.0118656], [-5.7799847, 42.0118588], [-5.7798996, 42.0118491], [-5.7796206, 42.0118107], [-5.7793944, 42.0117831], [-5.7792068, 42.011741], [-5.7791218, 42.011722], [-5.7785707, 42.0117082], [-5.7784533, 42.0117052], [-5.7784092, 42.0117043], [-5.7783148, 42.0117024], [-5.7782065, 42.0117002], [-5.7780782, 42.0117017], [-5.7774669, 42.0117086], [-5.7769554, 42.0117258], [-5.7763563, 42.0117686], [-5.7760266, 42.011806], [-5.7759347, 42.0118164], [-5.7754621, 42.0118619], [-5.7753813, 42.01187], [-5.7753035, 42.0118777], [-5.7752139, 42.0118865], [-5.775223, 42.0118984], [-5.7752749, 42.0120442], [-5.7753314, 42.0122029], [-5.775338, 42.0122217], [-5.7756265, 42.0128266], [-5.7757259, 42.013035], [-5.77593, 42.0133784], [-5.7760426, 42.0135589], [-5.7762701, 42.0139231], [-5.7766526, 42.0145221], [-5.7767362, 42.0146484], [-5.77711, 42.0152132], [-5.7771214, 42.0152279], [-5.7771859, 42.0153114], [-5.7771944, 42.0153225], [-5.777265, 42.0154487], [-5.7773052, 42.0155337], [-5.7774161, 42.0157681], [-5.7777119, 42.0164211], [-5.7778485, 42.0167241], [-5.7779905, 42.0170391], [-5.7781077, 42.0173475], [-5.7781125, 42.0173601], [-5.7783373, 42.0179138], [-5.7785372, 42.0183691], [-5.7785474, 42.018392], [-5.7786366, 42.0185933], [-5.7787416, 42.0189484], [-5.7787614, 42.0190187], [-5.778794, 42.01913], [-5.7788596, 42.019415], [-5.7788644, 42.0194356], [-5.7788791, 42.0194999], [-5.7789503, 42.019737], [-5.7789602, 42.0197539], [-5.7791138, 42.0200153], [-5.779396, 42.0204989], [-5.7794794, 42.0206493], [-5.7795066, 42.0206981], [-5.7796161, 42.0208881], [-5.7797278, 42.0210704], [-5.7798087, 42.0211819], [-5.7799805, 42.0213542], [-5.7801602, 42.0215206], [-5.7805246, 42.0218586], [-5.7806138, 42.0219443], [-5.7807478, 42.022073], [-5.7809501, 42.0222766], [-5.7810011, 42.0223233], [-5.7811283, 42.0224395], [-5.7813582, 42.0226175], [-5.7816354, 42.0228279], [-5.781678, 42.0228574], [-5.78184, 42.0229694], [-5.7819929, 42.0230647], [-5.7821152, 42.0231195], [-5.7821942, 42.023155], [-5.7823918, 42.0232296], [-5.7827089, 42.0233871], [-5.7830827, 42.0235619], [-5.7832606, 42.0236147], [-5.7834825, 42.0236677], [-5.783573, 42.0236961], [-5.7838753, 42.0238264], [-5.7842847, 42.0240216], [-5.7845829, 42.0241533], [-5.7847746, 42.0242211], [-5.784933, 42.02427], [-5.7851853, 42.0243395], [-5.785514, 42.0244214], [-5.7858987, 42.0245129], [-5.7862225, 42.0245694], [-5.7866205, 42.0246218], [-5.7867017, 42.024631], [-5.7869185, 42.0246727], [-5.7871226, 42.0247269], [-5.7873835, 42.0248063], [-5.7875319, 42.0248445], [-5.7876846, 42.0248766], [-5.7880047, 42.0249319], [-5.7880381, 42.0249368], [-5.7881118, 42.0249476], [-5.7884453, 42.0249933], [-5.788458, 42.0249954], [-5.7886588, 42.025028], [-5.7889349, 42.0250972], [-5.7891367, 42.0251478], [-5.7894132, 42.0252129], [-5.7895272, 42.0252398], [-5.7899654, 42.0253051], [-5.7910834, 42.025521], [-5.7917335, 42.0256686], [-5.7918292, 42.02569], [-5.7918894, 42.0257083], [-5.7919826, 42.0257464], [-5.7922481, 42.0260429], [-5.7923804, 42.0261954], [-5.7927466, 42.0266175], [-5.793262, 42.0272333], [-5.7933648, 42.0273979], [-5.7933817, 42.0274279], [-5.7934327, 42.0275188], [-5.7935435, 42.0277328], [-5.7937103, 42.028058], [-5.7937234, 42.0280835], [-5.793946, 42.0285216], [-5.7939994, 42.0286314], [-5.7940355, 42.0287439], [-5.7940435, 42.0288028], [-5.7940426, 42.0288038], [-5.7940586, 42.0288677], [-5.7940807, 42.0290698], [-5.794086, 42.0291187], [-5.7940867, 42.0291166], [-5.7940912, 42.0291075], [-5.7941338, 42.0290197], [-5.7941672, 42.0289504], [-5.794168, 42.0289489], [-5.7941973, 42.0288937], [-5.7942023, 42.0288765], [-5.7942213, 42.0288114], [-5.794262, 42.0286672], [-5.7942683, 42.0286504], [-5.7943325, 42.0284754], [-5.794457, 42.0282406], [-5.7944711, 42.0282138], [-5.7945167, 42.0281324], [-5.7945179, 42.0281297], [-5.7946513, 42.0279074], [-5.7948693, 42.0275411], [-5.794892, 42.027503], [-5.7949622, 42.027358], [-5.7949615, 42.0273571], [-5.7949737, 42.0273319], [-5.7949754, 42.0273308], [-5.7949892, 42.0273019], [-5.7950152, 42.0272479], [-5.7950147, 42.027247], [-5.7950781, 42.0271171], [-5.7950804, 42.0271133], [-5.795136, 42.0270166], [-5.7951987, 42.0268913], [-5.7952625, 42.0267609], [-5.7952647, 42.0267563], [-5.7952866, 42.0266992], [-5.7953089, 42.0266414], [-5.7953152, 42.0266252], [-5.7953175, 42.0266207], [-5.7953385, 42.0265772], [-5.7953853, 42.026483], [-5.7954069, 42.0264331], [-5.7954401, 42.0263567], [-5.7954698, 42.0263014], [-5.7955019, 42.0262426], [-5.7955449, 42.0261637], [-5.795701, 42.0258775], [-5.795762, 42.0257684], [-5.7957963, 42.0256878], [-5.7958558, 42.0255473], [-5.7958776, 42.025496], [-5.7958878, 42.0254768], [-5.7959254, 42.0254053], [-5.7959655, 42.0253295], [-5.7959734, 42.0253293], [-5.7960904, 42.0250625], [-5.7961211, 42.0249924], [-5.7961771, 42.0249006], [-5.7962018, 42.0248605], [-5.7962052, 42.0248551], [-5.7966219, 42.024572], [-5.7966266, 42.0245688], [-5.7966354, 42.0245628], [-5.7967036, 42.0245171], [-5.7971073, 42.0242368], [-5.7971581, 42.0242086], [-5.7973091, 42.02411], [-5.7974498, 42.0240274], [-5.7974985, 42.0240046], [-5.7975374, 42.023977], [-5.7975406, 42.0239754], [-5.7976546, 42.0238951], [-5.7976632, 42.0238889], [-5.7977878, 42.0237949], [-5.7978393, 42.0237559], [-5.7978423, 42.0237535], [-5.7979362, 42.0236697], [-5.798079, 42.0235613], [-5.7980831, 42.0235583], [-5.7981872, 42.0234835], [-5.7983416, 42.0233805], [-5.798374, 42.0233607], [-5.7984302, 42.0233264], [-5.7984364, 42.0233226], [-5.7987563, 42.0230985], [-5.7989892, 42.0229293], [-5.7990204, 42.0229082], [-5.7990933, 42.0228589], [-5.7991979, 42.0227883], [-5.7991994, 42.0227871], [-5.7992396, 42.0227577], [-5.799382, 42.0226518], [-5.7994351, 42.0226127], [-5.7995437, 42.0225328], [-5.7996672, 42.0224383], [-5.7998949, 42.0222634], [-5.7999763, 42.022211], [-5.8001217, 42.0221034], [-5.8003241, 42.0219533], [-5.8003428, 42.0219402], [-5.8003562, 42.0219308], [-5.8004492, 42.0218606], [-5.800454, 42.0218571], [-5.8004689, 42.0218465], [-5.8005, 42.0218245], [-5.8006214, 42.0217396], [-5.8006221, 42.0217392], [-5.8008708, 42.0215628], [-5.8008734, 42.0215607], [-5.8011682, 42.0213569], [-5.8012171, 42.0213246], [-5.8012255, 42.0213191], [-5.8012415, 42.0213089], [-5.8013707, 42.0212263], [-5.8013754, 42.0212228], [-5.8014539, 42.0211659], [-5.801497, 42.0211346], [-5.8015579, 42.0210792], [-5.8016029, 42.0210465], [-5.8016201, 42.0210339], [-5.8016266, 42.0210285], [-5.8016468, 42.0210116], [-5.8016721, 42.0209904], [-5.8016872, 42.0209778], [-5.801744, 42.0209236], [-5.8017454, 42.0209224], [-5.8017526, 42.0209155], [-5.8018422, 42.0208299], [-5.8018431, 42.0208288], [-5.8019326, 42.0207282], [-5.8019336, 42.0207275], [-5.8020503, 42.020609], [-5.8020548, 42.0206044], [-5.8021402, 42.0205097], [-5.8021523, 42.0204988], [-5.8022199, 42.0204383], [-5.8022682, 42.0203782], [-5.8023107, 42.0203255], [-5.8024636, 42.0201524], [-5.8024649, 42.020151], [-5.802552, 42.0200753], [-5.8025529, 42.0200744], [-5.8026438, 42.0199872], [-5.8026849, 42.0199477], [-5.8027395, 42.0198944], [-5.80274, 42.0198939], [-5.8027471, 42.0198875], [-5.8027904, 42.0198479], [-5.8027932, 42.0198454], [-5.8028863, 42.0197599], [-5.802932, 42.0197181], [-5.8029595, 42.0196967], [-5.8030115, 42.0196564], [-5.8030282, 42.0196432], [-5.8030298, 42.019642], [-5.8030812, 42.0195755], [-5.8031039, 42.0195468], [-5.8031098, 42.0195374], [-5.8031689, 42.0194866], [-5.8032322, 42.019432], [-5.8033236, 42.0193531], [-5.8033308, 42.0193465], [-5.8035921, 42.0191108], [-5.8036086, 42.0190959], [-5.8036094, 42.0190949], [-5.8036153, 42.0190888], [-5.8039011, 42.0187908], [-5.8041039, 42.0186347], [-5.8041536, 42.0185966], [-5.8041552, 42.0185957], [-5.8046655, 42.0182561], [-5.804668, 42.0182542], [-5.8047789, 42.01817], [-5.8048344, 42.0181284], [-5.8049378, 42.0180496], [-5.8050764, 42.0179438], [-5.8050885, 42.0179346], [-5.8055103, 42.0177321], [-5.8055936, 42.0176932], [-5.8055951, 42.0176924], [-5.8059244, 42.0175313], [-5.8059252, 42.017531], [-5.8061115, 42.0174225], [-5.8063156, 42.0173035], [-5.8065711, 42.017155], [-5.8065853, 42.0171466], [-5.8065981, 42.0171391], [-5.8067806, 42.0170383], [-5.8070931, 42.0168664], [-5.8073644, 42.016717], [-5.8074817, 42.0166545], [-5.8082857, 42.0162276], [-5.8083087, 42.0162156], [-5.8084035, 42.0161658], [-5.8084874, 42.0161221], [-5.8085009, 42.0161151], [-5.8085101, 42.0161098], [-5.8086839, 42.0160119], [-5.8087025, 42.0160014], [-5.8087067, 42.0159988], [-5.8088535, 42.0159068], [-5.8089313, 42.0158577], [-5.8090761, 42.0157339], [-5.8090785, 42.0157318], [-5.8092577, 42.0155857], [-5.8095539, 42.015344], [-5.8095593, 42.0153396], [-5.8097016, 42.0152219], [-5.8099187, 42.0150604], [-5.8099675, 42.015024], [-5.810081, 42.0149542], [-5.8104415, 42.0147312], [-5.8104432, 42.0147303], [-5.8104455, 42.0147292], [-5.8104752, 42.0147154], [-5.8107495, 42.0145882], [-5.8109363, 42.0145348], [-5.8109373, 42.014534], [-5.8111432, 42.0143691], [-5.8112272, 42.0143164], [-5.811271, 42.0142896], [-5.811548, 42.0141151], [-5.8118056, 42.0139775], [-5.8118715, 42.0139406], [-5.8119921, 42.013873], [-5.8119942, 42.0138714], [-5.8120715, 42.0138085], [-5.8122129, 42.0136963], [-5.8122595, 42.0136593], [-5.812355, 42.0135906], [-5.8124132, 42.0135513], [-5.812415, 42.0135497], [-5.8125845, 42.0134091], [-5.8126188, 42.0133807], [-5.8126586, 42.0133478], [-5.8126941, 42.0133077], [-5.8127219, 42.0132792], [-5.8127338, 42.0132672], [-5.812736, 42.0132652], [-5.8127488, 42.0132513], [-5.8128883, 42.0131024], [-5.812889, 42.0131013], [-5.8129228, 42.013069], [-5.8130332, 42.0129636], [-5.8130341, 42.0129626], [-5.8130859, 42.012918], [-5.8131525, 42.0128994], [-5.813251, 42.0128295], [-5.8133076, 42.0127855], [-5.8133228, 42.0127724], [-5.813337, 42.0127601], [-5.8133371, 42.0127591], [-5.8134808, 42.0125356], [-5.8135143, 42.0124654], [-5.8141059, 42.011904], [-5.8141294, 42.011883], [-5.8141494, 42.0118649], [-5.8141596, 42.0118558], [-5.8141606, 42.0118549], [-5.8145843, 42.0114966], [-5.8147588, 42.0113489], [-5.8147651, 42.0113437], [-5.8148175, 42.0112939], [-5.8148691, 42.0112451], [-5.8148776, 42.011237], [-5.8150278, 42.0110947], [-5.8150302, 42.0110924], [-5.8150563, 42.0110646], [-5.8150917, 42.0110269], [-5.8150997, 42.0110182], [-5.8152441, 42.0108595], [-5.8152578, 42.0108442], [-5.8152708, 42.0108295], [-5.8151732, 42.0107524], [-5.8151719, 42.0107518], [-5.8150718, 42.0106999], [-5.8150682, 42.0106975], [-5.8149715, 42.0106403], [-5.8149441, 42.0106126], [-5.8149437, 42.0106117], [-5.8149325, 42.0105864], [-5.8149316, 42.0105095], [-5.8149313, 42.0105072], [-5.8149431, 42.010415], [-5.8149486, 42.0104001], [-5.8150007, 42.010319], [-5.8150147, 42.0103038], [-5.8150306, 42.010294], [-5.8150858, 42.0102592], [-5.8151948, 42.0102098], [-5.8152738, 42.0101907], [-5.815389, 42.010158], [-5.8154165, 42.0101471], [-5.8154322, 42.0101442], [-5.8155273, 42.0101262], [-5.8156281, 42.0100945], [-5.8156782, 42.0100727], [-5.8157857, 42.0100159], [-5.8159013, 42.0099548], [-5.8159265, 42.0099413], [-5.8159589, 42.0099239], [-5.8159814, 42.0099045], [-5.8160198, 42.0098791], [-5.8160433, 42.0098551], [-5.8160659, 42.0098321], [-5.8161092, 42.0097721], [-5.8161804, 42.0096188], [-5.815498, 42.0092637], [-5.8153821, 42.0092039], [-5.8153545, 42.0091549], [-5.8154567, 42.0091733], [-5.8154497, 42.0091679], [-5.8153547, 42.0090973], [-5.8153076, 42.0090191], [-5.8152878, 42.0089063], [-5.8152968, 42.0087876], [-5.8153027, 42.0087628], [-5.8153406, 42.0086426], [-5.8153893, 42.008582], [-5.8154741, 42.0085473], [-5.8156792, 42.0084801], [-5.8158057, 42.0084132], [-5.815826, 42.008401], [-5.8160535, 42.0082642], [-5.8160555, 42.0082626], [-5.8161614, 42.0081882], [-5.8161623, 42.0081875], [-5.8161639, 42.0081711], [-5.8161734, 42.0080703], [-5.8161733, 42.0080649], [-5.8161723, 42.0080064], [-5.8161709, 42.0078419], [-5.8161075, 42.007467], [-5.8163283, 42.0074874], [-5.8163335, 42.0074878], [-5.8165202, 42.0075116], [-5.8168367, 42.007547], [-5.8170375, 42.0075694], [-5.8173737, 42.0076071], [-5.8175064, 42.0076288], [-5.8175136, 42.0076299], [-5.8175886, 42.0076432], [-5.8177799, 42.0076772], [-5.8179877, 42.0077132], [-5.8180474, 42.0077235], [-5.8180755, 42.0077283], [-5.8180885, 42.0077306], [-5.8181003, 42.0077327], [-5.8182179, 42.0078058], [-5.8182213, 42.0078079], [-5.818378, 42.0079163], [-5.8183877, 42.0079224], [-5.818525, 42.008015], [-5.8185461, 42.0079988], [-5.8185475, 42.0079977], [-5.8186113, 42.0079488], [-5.8186131, 42.0079474], [-5.8189763, 42.0076442], [-5.8191505, 42.0074989], [-5.819404, 42.0072648], [-5.81947, 42.0072039], [-5.8194736, 42.0072003], [-5.819948, 42.0066546], [-5.8199491, 42.006654], [-5.8206669, 42.0059478], [-5.82073, 42.0058856], [-5.8207546, 42.0058617], [-5.8208006, 42.0058161], [-5.8208315, 42.0057856], [-5.8208669, 42.0057506], [-5.8209058, 42.0057121], [-5.8209086, 42.0057093], [-5.8209592, 42.0056592], [-5.8212688, 42.005194], [-5.821305, 42.0051394], [-5.8213207, 42.0051158], [-5.8214084, 42.0049979], [-5.8214629, 42.004933], [-5.8214841, 42.0049077], [-5.8214892, 42.0049016], [-5.8214905, 42.0049002], [-5.8215662, 42.0048114], [-5.8217356, 42.004611], [-5.8217581, 42.0045844], [-5.8218736, 42.0044272], [-5.8218744, 42.0044262], [-5.8218883, 42.0044072], [-5.8218898, 42.0044053], [-5.8219123, 42.0043745], [-5.8219136, 42.0043728], [-5.8219762, 42.0042875], [-5.8220186, 42.0042298], [-5.8220531, 42.0041872], [-5.8222276, 42.003975], [-5.8222322, 42.0039693], [-5.8222346, 42.0039664], [-5.8222526, 42.0039446], [-5.8222678, 42.0039249], [-5.8222786, 42.0039115], [-5.8223167, 42.003864], [-5.8223231, 42.0038559], [-5.8223575, 42.003813], [-5.8223815, 42.0037833], [-5.8223825, 42.003782], [-5.8223997, 42.0037614], [-5.8232519, 42.0029073], [-5.8232412, 42.002905], [-5.823221, 42.0029008], [-5.8232285, 42.0028834], [-5.8232435, 42.0028485], [-5.822902, 42.0027889], [-5.8224084, 42.0027033], [-5.8222437, 42.0026742], [-5.8225103, 42.0020821], [-5.8225213, 42.0020553], [-5.8225587, 42.0020639], [-5.8234563, 42.0022694], [-5.8240239, 42.0016751], [-5.8244321, 42.001769], [-5.8247369, 42.001833], [-5.824767, 42.0018097], [-5.8247892, 42.0017925], [-5.8247927, 42.0017901], [-5.8248759, 42.0018139], [-5.825118, 42.0015721], [-5.8257138, 42.0009677], [-5.8259506, 42.0010675], [-5.8260248, 42.0010216], [-5.8260738, 42.000994], [-5.8260872, 42.0009865], [-5.8261116, 42.0009725], [-5.8261437, 42.0009541], [-5.8261782, 42.0009344], [-5.8261824, 42.0009321], [-5.8262369, 42.0009009], [-5.8259395, 42.0007059], [-5.8259368, 42.000704], [-5.8257385, 42.0005589], [-5.8257936, 42.0005168], [-5.8275989, 41.9991405], [-5.8277945, 41.9992776], [-5.8277957, 41.999278], [-5.8279534, 41.9993927], [-5.8279875, 41.9993642], [-5.8279891, 41.9993629], [-5.8281749, 41.9995055], [-5.8295033, 41.998461], [-5.8299821, 41.9988104], [-5.8300339, 41.9987485], [-5.8300424, 41.9987383], [-5.8303898, 41.9982876], [-5.83088, 41.997642], [-5.831143, 41.9978241], [-5.8313965, 41.998011], [-5.8314089, 41.9979949], [-5.8314127, 41.9979977], [-5.8319445, 41.9972947], [-5.8319538, 41.9972821], [-5.8322707, 41.9968577], [-5.8324051, 41.9969568], [-5.832447, 41.9969073], [-5.8324748, 41.996884], [-5.8324757, 41.9968832], [-5.8324842, 41.9968899], [-5.8337443, 41.9959236], [-5.8337379, 41.9959198], [-5.83383, 41.9959733], [-5.8340946, 41.9960334], [-5.834174, 41.9960491], [-5.8343923, 41.9960901], [-5.8346042, 41.9961292], [-5.8347828, 41.9961192], [-5.8350794, 41.9961104], [-5.8356621, 41.9960956], [-5.8357043, 41.9960946], [-5.835706, 41.9960943], [-5.8360431, 41.9960841], [-5.8360779, 41.9961214], [-5.8362687, 41.9961914], [-5.8360443, 41.9960058], [-5.8360957, 41.9959885], [-5.8360402, 41.9959515], [-5.8359903, 41.995918], [-5.835962, 41.9958991], [-5.8357587, 41.9957184], [-5.8357461, 41.9957115], [-5.8356958, 41.9956677], [-5.8354626, 41.9954655], [-5.8351906, 41.9952379], [-5.8351845, 41.9952328], [-5.8350933, 41.995177], [-5.8350014, 41.9951438], [-5.834239, 41.9945136], [-5.8340607, 41.9943661], [-5.8338125, 41.9943216], [-5.8334855, 41.9941928], [-5.8334783, 41.99419], [-5.8331429, 41.9940304], [-5.8328718, 41.9938412], [-5.8326826, 41.9935942], [-5.8325602, 41.9933734], [-5.8325044, 41.9931719], [-5.8325002, 41.993076], [-5.8323731, 41.9929709], [-5.8323607, 41.993017], [-5.8323575, 41.9930114], [-5.8322439, 41.9928642], [-5.8316203, 41.9923486], [-5.8315912, 41.9923174], [-5.8313648, 41.9920782], [-5.8310739, 41.9918267], [-5.8307997, 41.9916027], [-5.8305129, 41.991433], [-5.8304178, 41.9913543], [-5.8291584, 41.9903131], [-5.8291457, 41.9903025], [-5.8291442, 41.9902691], [-5.8292381, 41.9903125], [-5.8293446, 41.9903456], [-5.8294498, 41.9903644], [-5.8294829, 41.9903703], [-5.8293321, 41.9902416], [-5.8285037, 41.989534], [-5.828307, 41.9893914], [-5.8282473, 41.9893443], [-5.8275274, 41.9887746], [-5.8272915, 41.988593], [-5.8269013, 41.9882929], [-5.8252047, 41.9869605], [-5.8251935, 41.9869538], [-5.8250093, 41.9868459], [-5.8248184, 41.986734], [-5.8247906, 41.9867176], [-5.8246201, 41.9866435], [-5.8244189, 41.9865559], [-5.824371, 41.9865351], [-5.8242264, 41.9864721], [-5.8240313, 41.9863872], [-5.823829, 41.9862991], [-5.8237213, 41.9862523], [-5.8236083, 41.9862032], [-5.8235543, 41.9861796], [-5.8235496, 41.9861775], [-5.8234892, 41.9861498], [-5.8233628, 41.9860917], [-5.8231037, 41.9859726], [-5.8223174, 41.9856113], [-5.8221628, 41.9852686], [-5.8219511, 41.9847957], [-5.8218455, 41.9846681], [-5.8214855, 41.9842335], [-5.8212361, 41.9840172], [-5.8205979, 41.9838661], [-5.8200308, 41.9837663], [-5.8199552, 41.9837461], [-5.8193427, 41.9835822], [-5.8193049, 41.9835737], [-5.8192336, 41.9835576], [-5.8187639, 41.9834519], [-5.8187155, 41.9834415], [-5.8184778, 41.9833907], [-5.8179995, 41.9832884], [-5.8177854, 41.9832426], [-5.8170925, 41.9830729], [-5.8165795, 41.9829799], [-5.8161173, 41.9828817], [-5.815611, 41.9828363], [-5.8151657, 41.9827585], [-5.8150776, 41.9827431], [-5.81446, 41.9826636], [-5.8144027, 41.9826707], [-5.8143036, 41.9827994], [-5.8142839, 41.9828251], [-5.814258, 41.9828587], [-5.8142133, 41.9829167], [-5.8141046, 41.9830577], [-5.8140396, 41.9831545], [-5.8140519, 41.9831571], [-5.8138077, 41.9835206], [-5.813753, 41.9835811], [-5.8137517, 41.983583], [-5.81352, 41.9838391], [-5.8131371, 41.9842779], [-5.8131127, 41.984306], [-5.8131063, 41.9843116], [-5.8130566, 41.9843684], [-5.8127968, 41.9845927], [-5.8127681, 41.9846175], [-5.8127318, 41.9846488], [-5.8126906, 41.9846844], [-5.8125642, 41.9847935], [-5.8123827, 41.9849767], [-5.8121901, 41.9851712], [-5.8117543, 41.9856156], [-5.8113271, 41.9859728], [-5.8112614, 41.9860278], [-5.8110948, 41.9861747], [-5.8109988, 41.9862592], [-5.8109771, 41.9862783], [-5.8105918, 41.9867764]]]}}]}